ONEWEB-0189             
1 48217U 21031H   25273.22089276 -.00000189  00000+0 -54477-3 0  9993
2 48217  87.9065 341.4687 0002099 110.3032 249.8324 13.14502199214073
ONEWEB-0196             
1 48218U 21031J   25272.89421633  .00000103  00000+0  24212-3 0  9991
2 48218  87.9069 341.5487 0001933 100.2939 259.8409 13.14500297214035
ONEWEB-0183             
1 48219U 21031K   25273.09719547  .00000279  00000+0  71818-3 0  9997
2 48219  87.9062 341.5175 0001966  94.6792 265.4562 13.14504606214156
ONEWEB-0185             
1 48220U 21031L   25272.89501374  .00000001  00000+0 -32542-4 0  9999
2 48220  87.9068 341.5248 0002243  94.8304 265.3082 13.14502557214053
ONEWEB-0187             
1 48221U 21031M   25272.72283078  .00000208  00000+0  52609-3 0  9993
2 48221  87.9068 341.6053 0002171 101.2508 258.8866 13.14504959214042
ONEWEB-0192             
1 48222U 21031N   25272.92116831 -.00000238  00000+0 -67708-3 0  9999
2 48222  87.9065 341.5589 0001896 102.2856 257.8486 13.14500246213987
ONEWEB-0219             
1 48223U 21031P   25273.20502771 -.00000126  00000+0 -37394-3 0  9998
2 48223  87.9069 341.4753 0002148  97.7024 262.4349 13.14504623214221
ONEWEB-0202             
1 48224U 21031Q   25273.18600345  .00000089  00000+0  20530-3 0  9992
2 48224  87.9066 341.4935 0002113 118.8723 241.2619 13.14503559214204
ONEWEB-0204             
1 48225U 21031R   25273.22008846 -.00000171  00000+0 -49662-3 0  9997
2 48225  87.9060 341.4755 0001937  90.0204 270.1148 13.14501217214103
ONEWEB-0205             
1 48226U 21031S   25272.89104603  .00000130  00000+0  31557-3 0  9995
2 48226  87.9067 341.5325 0002015  98.8149 261.3209 13.14500982214071
ONEWEB-0206             
1 48227U 21031T   25273.09244366  .00000132  00000+0  32270-3 0  9995
2 48227  87.9074 341.4766 0001565 100.0447 260.0860 13.14501597214054
ONEWEB-0182             
1 48228U 21031U   25273.08768002  .00000046  00000+0  88393-4 0  9995
2 48228  87.9060 341.5195 0001928  90.6572 269.4778 13.14504163214269
ONEWEB-0186             
1 48229U 21031V   25272.71818477  .00000175  00000+0  43831-3 0  9997
2 48229  87.9077 341.5569 0001910  98.2305 261.9041 13.14504838214160
ONEWEB-0181             
1 48230U 21031W   25272.92434622  .00000030  00000+0  45394-4 0  9995
2 48230  87.9054 341.5836 0001932 104.8393 255.2951 13.14504322214040
ONEWEB-0188             
1 48231U 21031X   25272.88628683  .00000252  00000+0  64449-3 0  9990
2 48231  87.9068 341.5852 0001852  95.9740 264.1601 13.14501565213946
ONEWEB-0220             
1 48232U 21031Y   25272.69758997 -.00000033  00000+0 -12238-3 0  9990
2 48232  87.9072 341.5622 0002081  97.2599 262.8767 13.14503342214189
ONEWEB-0165             
1 48233U 21031Z   25273.18283023  .00000106  00000+0  25105-3 0  9995
2 48233  87.9056 341.5041 0002035 102.1505 257.9853 13.14504005214200
