[{"OBJECT_NAME":"ONEWEB-0189","OBJECT_ID":"2021-031H","EPOCH":"2025-09-30T05:18:05.134464","MEAN_MOTION":13.14502199,"ECCENTRICITY":0.00020999,"INCLINATION":87.9065,"RA_OF_ASC_NODE":341.4687,"ARG_OF_PERICENTER":110.3032,"MEAN_ANOMALY":249.8324,"EPHEMERIS_TYPE":0,"CLASSIFICATION_TYPE":"U","NORAD_CAT_ID":48217,"ELEMENT_SET_NO":999,"REV_AT_EPOCH":21407,"BSTAR":-0.00054477392,"MEAN_MOTION_DOT":-1.89e-6,"MEAN_MOTION_DDOT":0},{"OBJECT_NAME":"ONEWEB-0196","OBJECT_ID":"2021-031J","EPOCH":"2025-09-29T21:27:40.290912","MEAN_MOTION":13.14500297,"ECCENTRICITY":0.0001933,"INCLINATION":87.9069,"RA_OF_ASC_NODE":341.5487,"ARG_OF_PERICENTER":100.2939,"MEAN_ANOMALY":259.8409,"EPHEMERIS_TYPE":0,"CLASSIFICATION_TYPE":"U","NORAD_CAT_ID":48218,"ELEMENT_SET_NO":999,"REV_AT_EPOCH":21403,"BSTAR":0.00024212,"MEAN_MOTION_DOT":1.03e-6,"MEAN_MOTION_DDOT":0},{"OBJECT_NAME":"ONEWEB-0183","OBJECT_ID":"2021-031K","EPOCH":"2025-09-30T02:19:57.688608","MEAN_MOTION":13.14504606,"ECCENTRICITY":0.0001966,"INCLINATION":87.9062,"RA_OF_ASC_NODE":341.5175,"ARG_OF_PERICENTER":94.6792,"MEAN_ANOMALY":265.4562,"EPHEMERIS_TYPE":0,"CLASSIFICATION_TYPE":"U","NORAD_CAT_ID":48219,"ELEMENT_SET_NO":999,"REV_AT_EPOCH":21415,"BSTAR":0.00071817767,"MEAN_MOTION_DOT":2.79e-6,"MEAN_MOTION_DDOT":0},{"OBJECT_NAME":"ONEWEB-0185","OBJECT_ID":"2021-031L","EPOCH":"2025-09-29T21:28:49.187136","MEAN_MOTION":13.14502557,"ECCENTRICITY":0.0002243,"INCLINATION":87.9068,"RA_OF_ASC_NODE":341.5248,"ARG_OF_PERICENTER":94.8304,"MEAN_ANOMALY":265.3082,"EPHEMERIS_TYPE":0,"CLASSIFICATION_TYPE":"U","NORAD_CAT_ID":48220,"ELEMENT_SET_NO":999,"REV_AT_EPOCH":21405,"BSTAR":-3.2542e-5,"MEAN_MOTION_DOT":1.0e-8,"MEAN_MOTION_DDOT":0},{"OBJECT_NAME":"ONEWEB-0187","OBJECT_ID":"2021-031M","EPOCH":"2025-09-29T17:20:52.579392","MEAN_MOTION":13.14504959,"ECCENTRICITY":0.00021717,"INCLINATION":87.9068,"RA_OF_ASC_NODE":341.6053,"ARG_OF_PERICENTER":101.2508,"MEAN_ANOMALY":258.8866,"EPHEMERIS_TYPE":0,"CLASSIFICATION_TYPE":"U","NORAD_CAT_ID":48221,"ELEMENT_SET_NO":999,"REV_AT_EPOCH":21404,"BSTAR":0.00052609274,"MEAN_MOTION_DOT":2.08e-6,"MEAN_MOTION_DDOT":0},{"OBJECT_NAME":"ONEWEB-0192","OBJECT_ID":"2021-031N","EPOCH":"2025-09-29T22:06:28.941984","MEAN_MOTION":13.14500246,"ECCENTRICITY":0.0001896,"INCLINATION":87.9065,"RA_OF_ASC_NODE":341.5589,"ARG_OF_PERICENTER":102.2856,"MEAN_ANOMALY":257.8486,"EPHEMERIS_TYPE":0,"CLASSIFICATION_TYPE":"U","NORAD_CAT_ID":48222,"ELEMENT_SET_NO":999,"REV_AT_EPOCH":21398,"BSTAR":-0.00067708,"MEAN_MOTION_DOT":-2.38e-6,"MEAN_MOTION_DDOT":0},{"OBJECT_NAME":"ONEWEB-0219","OBJECT_ID":"2021-031P","EPOCH":"2025-09-30T04:55:14.394144","MEAN_MOTION":13.14504623,"ECCENTRICITY":0.00021488,"INCLINATION":87.9069,"RA_OF_ASC_NODE":341.4753,"ARG_OF_PERICENTER":97.7024,"MEAN_ANOMALY":262.4349,"EPHEMERIS_TYPE":0,"CLASSIFICATION_TYPE":"U","NORAD_CAT_ID":48223,"ELEMENT_SET_NO":999,"REV_AT_EPOCH":21422,"BSTAR":-0.00037394021,"MEAN_MOTION_DOT":-1.26e-6,"MEAN_MOTION_DDOT":0},{"OBJECT_NAME":"ONEWEB-0202","OBJECT_ID":"2021-031Q","EPOCH":"2025-09-30T04:27:50.698080","MEAN_MOTION":13.14503559,"ECCENTRICITY":0.00021137,"INCLINATION":87.9066,"RA_OF_ASC_NODE":341.4935,"ARG_OF_PERICENTER":118.8723,"MEAN_ANOMALY":241.2619,"EPHEMERIS_TYPE":0,"CLASSIFICATION_TYPE":"U","NORAD_CAT_ID":48224,"ELEMENT_SET_NO":999,"REV_AT_EPOCH":21420,"BSTAR":0.00020529808,"MEAN_MOTION_DOT":8.9e-7,"MEAN_MOTION_DDOT":0},{"OBJECT_NAME":"ONEWEB-0204","OBJECT_ID":"2021-031R","EPOCH":"2025-09-30T05:16:55.642944","MEAN_MOTION":13.14501217,"ECCENTRICITY":0.00019378,"INCLINATION":87.906,"RA_OF_ASC_NODE":341.4755,"ARG_OF_PERICENTER":90.0204,"MEAN_ANOMALY":270.1148,"EPHEMERIS_TYPE":0,"CLASSIFICATION_TYPE":"U","NORAD_CAT_ID":48225,"ELEMENT_SET_NO":999,"REV_AT_EPOCH":21410,"BSTAR":-0.00049662464,"MEAN_MOTION_DOT":-1.71e-6,"MEAN_MOTION_DDOT":0},{"OBJECT_NAME":"ONEWEB-0205","OBJECT_ID":"2021-031S","EPOCH":"2025-09-29T21:23:06.376992","MEAN_MOTION":13.14500982,"ECCENTRICITY":0.0002015,"INCLINATION":87.9067,"RA_OF_ASC_NODE":341.5325,"ARG_OF_PERICENTER":98.8149,"MEAN_ANOMALY":261.3209,"EPHEMERIS_TYPE":0,"CLASSIFICATION_TYPE":"U","NORAD_CAT_ID":48226,"ELEMENT_SET_NO":999,"REV_AT_EPOCH":21407,"BSTAR":0.00031557,"MEAN_MOTION_DOT":1.3e-6,"MEAN_MOTION_DDOT":0},{"OBJECT_NAME":"ONEWEB-0206","OBJECT_ID":"2021-031T","EPOCH":"2025-09-30T02:13:07.132224","MEAN_MOTION":13.14501597,"ECCENTRICITY":0.00015657,"INCLINATION":87.9074,"RA_OF_ASC_NODE":341.4766,"ARG_OF_PERICENTER":100.0447,"MEAN_ANOMALY":260.086,"EPHEMERIS_TYPE":0,"CLASSIFICATION_TYPE":"U","NORAD_CAT_ID":48227,"ELEMENT_SET_NO":999,"REV_AT_EPOCH":21405,"BSTAR":0.00032270414,"MEAN_MOTION_DOT":1.32e-6,"MEAN_MOTION_DDOT":0},{"OBJECT_NAME":"ONEWEB-0182","OBJECT_ID":"2021-031U","EPOCH":"2025-09-30T02:06:15.553728","MEAN_MOTION":13.14504163,"ECCENTRICITY":0.00019283,"INCLINATION":87.906,"RA_OF_ASC_NODE":341.5195,"ARG_OF_PERICENTER":90.6572,"MEAN_ANOMALY":269.4778,"EPHEMERIS_TYPE":0,"CLASSIFICATION_TYPE":"U","NORAD_CAT_ID":48228,"ELEMENT_SET_NO":999,"REV_AT_EPOCH":21426,"BSTAR":8.83933e-5,"MEAN_MOTION_DOT":4.6e-7,"MEAN_MOTION_DDOT":0},{"OBJECT_NAME":"ONEWEB-0186","OBJECT_ID":"2021-031V","EPOCH":"2025-09-29T17:14:11.164128","MEAN_MOTION":13.14504838,"ECCENTRICITY":0.00019108,"INCLINATION":87.9077,"RA_OF_ASC_NODE":341.5569,"ARG_OF_PERICENTER":98.2305,"MEAN_ANOMALY":261.9041,"EPHEMERIS_TYPE":0,"CLASSIFICATION_TYPE":"U","NORAD_CAT_ID":48229,"ELEMENT_SET_NO":999,"REV_AT_EPOCH":21416,"BSTAR":0.00043830596,"MEAN_MOTION_DOT":1.75e-6,"MEAN_MOTION_DDOT":0},{"OBJECT_NAME":"ONEWEB-0181","OBJECT_ID":"2021-031W","EPOCH":"2025-09-29T22:11:03.513408","MEAN_MOTION":13.14504322,"ECCENTRICITY":0.0001932,"INCLINATION":87.9054,"RA_OF_ASC_NODE":341.5836,"ARG_OF_PERICENTER":104.8393,"MEAN_ANOMALY":255.2951,"EPHEMERIS_TYPE":0,"CLASSIFICATION_TYPE":"U","NORAD_CAT_ID":48230,"ELEMENT_SET_NO":999,"REV_AT_EPOCH":21404,"BSTAR":4.5394e-5,"MEAN_MOTION_DOT":3.0e-7,"MEAN_MOTION_DDOT":0},{"OBJECT_NAME":"ONEWEB-0188","OBJECT_ID":"2021-031X","EPOCH":"2025-09-29T21:16:15.182112","MEAN_MOTION":13.14501565,"ECCENTRICITY":0.0001852,"INCLINATION":87.9068,"RA_OF_ASC_NODE":341.5852,"ARG_OF_PERICENTER":95.974,"MEAN_ANOMALY":264.1601,"EPHEMERIS_TYPE":0,"CLASSIFICATION_TYPE":"U","NORAD_CAT_ID":48231,"ELEMENT_SET_NO":999,"REV_AT_EPOCH":21394,"BSTAR":0.00064449,"MEAN_MOTION_DOT":2.52e-6,"MEAN_MOTION_DDOT":0},{"OBJECT_NAME":"ONEWEB-0220","OBJECT_ID":"2021-031Y","EPOCH":"2025-09-29T16:44:31.773408","MEAN_MOTION":13.14503342,"ECCENTRICITY":0.00020818,"INCLINATION":87.9072,"RA_OF_ASC_NODE":341.5622,"ARG_OF_PERICENTER":97.2599,"MEAN_ANOMALY":262.8767,"EPHEMERIS_TYPE":0,"CLASSIFICATION_TYPE":"U","NORAD_CAT_ID":48232,"ELEMENT_SET_NO":999,"REV_AT_EPOCH":21418,"BSTAR":-0.00012238142,"MEAN_MOTION_DOT":-3.3e-7,"MEAN_MOTION_DDOT":0},{"OBJECT_NAME":"ONEWEB-0165","OBJECT_ID":"2021-031Z","EPOCH":"2025-09-30T04:23:16.531872","MEAN_MOTION":13.14504005,"ECCENTRICITY":0.00020352,"INCLINATION":87.9056,"RA_OF_ASC_NODE":341.5041,"ARG_OF_PERICENTER":102.1505,"MEAN_ANOMALY":257.9853,"EPHEMERIS_TYPE":0,"CLASSIFICATION_TYPE":"U","NORAD_CAT_ID":48233,"ELEMENT_SET_NO":999,"REV_AT_EPOCH":21420,"BSTAR":0.00025104801,"MEAN_MOTION_DOT":1.06e-6,"MEAN_MOTION_DDOT":0}]
